APRIZESAT 2             
1 28366U 04025A   26061.40851715  .00000420  00000+0  14346-3 0  9998
2 28366  98.0899 233.4892 0105034 211.8818 147.5986 14.37981572136291
SAUDICOMSAT 1           
1 28369U 04025D   26061.59369323  .00000639  00000+0  15766-3 0  9999
2 28369  98.5808  68.8366 0032004 352.2619   7.8080 14.55378674148626
SAUDICOMSAT 2           
1 28370U 04025E   26061.57650649  .00000396  00000+0  11336-3 0  9992
2 28370  98.6685  70.7922 0054842 221.6677 138.0332 14.49902361144654
APRIZESAT 1             
1 28372U 04025G   26061.60253513  .00000368  00000+0  10248-3 0  9997
2 28372  98.6343  69.4099 0045726 118.6104 241.9702 14.51708335146440
NANOSAT-1               
1 28493U 04049B   26061.82411044  .00001759  00000+0  24047-3 0  9993
2 28493  98.2087 196.0093 0002782 275.5065  84.5829 14.79894028139718
SAUDICOMSAT 7           
1 31119U 07012C   26061.50418288  .00000863  00000+0  16364-3 0  9995
2 31119  98.3666  33.5301 0055997 169.4953 190.7434 14.65956921  6802
SAUDICOMSAT 6           
1 31121U 07012E   26061.83867394  .00001053  00000+0  21121-3 0  9999
2 31121  98.3976  27.4619 0070827 298.5266  60.8816 14.62416153  4649
SAUDICOMSAT 5           
1 31124U 07012H   26061.83031548  .00001051  00000+0  18941-3 0  9990
2 31124  98.3379  34.6301 0048828  99.9303 260.7417 14.67985227  7995
SAUDICOMSAT 3           
1 31125U 07012J   26061.49750569  .00001543  00000+0  26013-3 0  9999
2 31125  98.3036  34.8517 0040056  31.0636 329.2926 14.70501028  9140
SAUDICOMSAT 4           
1 31127U 07012L   26061.49804076  .00000862  00000+0  16863-3 0  9999
2 31127  98.3870  31.9752 0062477 231.0569 128.5055 14.64365132  5679
APRIZESAT 4             
1 35684U 09041D   26061.77598200  .00001064  00000+0  13390-3 0  9992
2 35684  98.1500 134.9558 0042320 307.7827  51.9556 14.83692420895586
APRIZESAT 3             
1 35686U 09041F   26061.35323873  .00002923  00000+0  25703-3 0  9996
2 35686  98.1879 209.5829 0063225  60.6581 300.0935 14.95862383900403
S-NET D                 
1 43186U 18014G   26061.67598885  .00007742  00000+0  41163-3 0  9994
2 43186  97.5450 327.1718 0009548  36.8925 323.2962 15.15513803442629
S-NET B                 
1 43187U 18014H   26061.68541864  .00007900  00000+0  42027-3 0  9997
2 43187  97.5456 327.1643 0010052  32.1416 328.0427 15.15485743442629
S-NET A                 
1 43188U 18014J   26061.74139248  .00007829  00000+0  41611-3 0  9992
2 43188  97.5465 327.4095 0009971  33.0573 327.1281 15.15521951442637
S-NET C                 
1 43189U 18014K   26061.68873056  .00007703  00000+0  40984-3 0  9991
2 43189  97.5480 327.4152 0011184  24.9418 335.2353 15.15477676441177
SALSAT                  
1 46495U 20068K   26061.53547552  .00011172  00000+0  41124-3 0  9991
2 46495  97.8844  58.2509 0008864 326.6723  33.3956 15.28007427299065
