[{"OBJECT_NAME":"APRIZESAT 2","OBJECT_ID":"2004-025A","EPOCH":"2026-03-02T09:48:15.881760","MEAN_MOTION":14.37981572,"ECCENTRICITY":0.01050341,"INCLINATION":98.0899,"RA_OF_ASC_NODE":233.4892,"ARG_OF_PERICENTER":211.8818,"MEAN_ANOMALY":147.5986,"EPHEMERIS_TYPE":0,"CLASSIFICATION_TYPE":"U","NORAD_CAT_ID":28366,"ELEMENT_SET_NO":999,"REV_AT_EPOCH":13629,"BSTAR":0.00014345672,"MEAN_MOTION_DOT":4.2e-6,"MEAN_MOTION_DDOT":0},{"OBJECT_NAME":"SAUDICOMSAT 1","OBJECT_ID":"2004-025D","EPOCH":"2026-03-02T14:14:55.095072","MEAN_MOTION":14.55378674,"ECCENTRICITY":0.0032004,"INCLINATION":98.5808,"RA_OF_ASC_NODE":68.8366,"ARG_OF_PERICENTER":352.2619,"MEAN_ANOMALY":7.808,"EPHEMERIS_TYPE":0,"CLASSIFICATION_TYPE":"U","NORAD_CAT_ID":28369,"ELEMENT_SET_NO":999,"REV_AT_EPOCH":14862,"BSTAR":0.00015766,"MEAN_MOTION_DOT":6.39e-6,"MEAN_MOTION_DDOT":0},{"OBJECT_NAME":"SAUDICOMSAT 2","OBJECT_ID":"2004-025E","EPOCH":"2026-03-02T13:50:10.160736","MEAN_MOTION":14.49902361,"ECCENTRICITY":0.0054842,"INCLINATION":98.6685,"RA_OF_ASC_NODE":70.7922,"ARG_OF_PERICENTER":221.6677,"MEAN_ANOMALY":138.0332,"EPHEMERIS_TYPE":0,"CLASSIFICATION_TYPE":"U","NORAD_CAT_ID":28370,"ELEMENT_SET_NO":999,"REV_AT_EPOCH":14465,"BSTAR":0.00011336,"MEAN_MOTION_DOT":3.96e-6,"MEAN_MOTION_DDOT":0},{"OBJECT_NAME":"APRIZESAT 1","OBJECT_ID":"2004-025G","EPOCH":"2026-03-02T14:27:39.035232","MEAN_MOTION":14.51708335,"ECCENTRICITY":0.0045726,"INCLINATION":98.6343,"RA_OF_ASC_NODE":69.4099,"ARG_OF_PERICENTER":118.6104,"MEAN_ANOMALY":241.9702,"EPHEMERIS_TYPE":0,"CLASSIFICATION_TYPE":"U","NORAD_CAT_ID":28372,"ELEMENT_SET_NO":999,"REV_AT_EPOCH":14644,"BSTAR":0.00010248,"MEAN_MOTION_DOT":3.68e-6,"MEAN_MOTION_DDOT":0},{"OBJECT_NAME":"NANOSAT-1","OBJECT_ID":"2004-049B","EPOCH":"2026-03-02T19:46:43.142016","MEAN_MOTION":14.79894028,"ECCENTRICITY":0.0002782,"INCLINATION":98.2087,"RA_OF_ASC_NODE":196.0093,"ARG_OF_PERICENTER":275.5065,"MEAN_ANOMALY":84.5829,"EPHEMERIS_TYPE":0,"CLASSIFICATION_TYPE":"U","NORAD_CAT_ID":28493,"ELEMENT_SET_NO":999,"REV_AT_EPOCH":13971,"BSTAR":0.00024047,"MEAN_MOTION_DOT":1.759e-5,"MEAN_MOTION_DDOT":0},{"OBJECT_NAME":"SAUDICOMSAT 7","OBJECT_ID":"2007-012C","EPOCH":"2026-03-02T12:06:01.400832","MEAN_MOTION":14.65956921,"ECCENTRICITY":0.00559976,"INCLINATION":98.3666,"RA_OF_ASC_NODE":33.5301,"ARG_OF_PERICENTER":169.4953,"MEAN_ANOMALY":190.7434,"EPHEMERIS_TYPE":0,"CLASSIFICATION_TYPE":"U","NORAD_CAT_ID":31119,"ELEMENT_SET_NO":999,"REV_AT_EPOCH":680,"BSTAR":0.00016363743,"MEAN_MOTION_DOT":8.63e-6,"MEAN_MOTION_DDOT":0},{"OBJECT_NAME":"SAUDICOMSAT 6","OBJECT_ID":"2007-012E","EPOCH":"2026-03-02T20:07:41.428416","MEAN_MOTION":14.62416153,"ECCENTRICITY":0.0070827,"INCLINATION":98.3976,"RA_OF_ASC_NODE":27.4619,"ARG_OF_PERICENTER":298.5266,"MEAN_ANOMALY":60.8816,"EPHEMERIS_TYPE":0,"CLASSIFICATION_TYPE":"U","NORAD_CAT_ID":31121,"ELEMENT_SET_NO":999,"REV_AT_EPOCH":464,"BSTAR":0.00021121,"MEAN_MOTION_DOT":1.053e-5,"MEAN_MOTION_DDOT":0},{"OBJECT_NAME":"SAUDICOMSAT 5","OBJECT_ID":"2007-012H","EPOCH":"2026-03-02T19:55:39.257472","MEAN_MOTION":14.67985227,"ECCENTRICITY":0.0048828,"INCLINATION":98.3379,"RA_OF_ASC_NODE":34.6301,"ARG_OF_PERICENTER":99.9303,"MEAN_ANOMALY":260.7417,"EPHEMERIS_TYPE":0,"CLASSIFICATION_TYPE":"U","NORAD_CAT_ID":31124,"ELEMENT_SET_NO":999,"REV_AT_EPOCH":799,"BSTAR":0.00018941,"MEAN_MOTION_DOT":1.051e-5,"MEAN_MOTION_DDOT":0},{"OBJECT_NAME":"SAUDICOMSAT 3","OBJECT_ID":"2007-012J","EPOCH":"2026-03-02T11:56:24.491616","MEAN_MOTION":14.70501028,"ECCENTRICITY":0.00400566,"INCLINATION":98.3036,"RA_OF_ASC_NODE":34.8517,"ARG_OF_PERICENTER":31.0636,"MEAN_ANOMALY":329.2926,"EPHEMERIS_TYPE":0,"CLASSIFICATION_TYPE":"U","NORAD_CAT_ID":31125,"ELEMENT_SET_NO":999,"REV_AT_EPOCH":914,"BSTAR":0.00026012683,"MEAN_MOTION_DOT":1.543e-5,"MEAN_MOTION_DDOT":0},{"OBJECT_NAME":"SAUDICOMSAT 4","OBJECT_ID":"2007-012L","EPOCH":"2026-03-02T11:57:10.721664","MEAN_MOTION":14.64365132,"ECCENTRICITY":0.00624772,"INCLINATION":98.387,"RA_OF_ASC_NODE":31.9752,"ARG_OF_PERICENTER":231.0569,"MEAN_ANOMALY":128.5055,"EPHEMERIS_TYPE":0,"CLASSIFICATION_TYPE":"U","NORAD_CAT_ID":31127,"ELEMENT_SET_NO":999,"REV_AT_EPOCH":567,"BSTAR":0.00016863393,"MEAN_MOTION_DOT":8.62e-6,"MEAN_MOTION_DDOT":0},{"OBJECT_NAME":"APRIZESAT 4","OBJECT_ID":"2009-041D","EPOCH":"2026-03-02T18:37:24.844800","MEAN_MOTION":14.8369242,"ECCENTRICITY":0.004232,"INCLINATION":98.15,"RA_OF_ASC_NODE":134.9558,"ARG_OF_PERICENTER":307.7827,"MEAN_ANOMALY":51.9556,"EPHEMERIS_TYPE":0,"CLASSIFICATION_TYPE":"U","NORAD_CAT_ID":35684,"ELEMENT_SET_NO":999,"REV_AT_EPOCH":89558,"BSTAR":0.0001339,"MEAN_MOTION_DOT":1.064e-5,"MEAN_MOTION_DDOT":0},{"OBJECT_NAME":"APRIZESAT 3","OBJECT_ID":"2009-041F","EPOCH":"2026-03-02T08:28:39.826272","MEAN_MOTION":14.95862383,"ECCENTRICITY":0.00632259,"INCLINATION":98.1879,"RA_OF_ASC_NODE":209.5829,"ARG_OF_PERICENTER":60.6581,"MEAN_ANOMALY":300.0935,"EPHEMERIS_TYPE":0,"CLASSIFICATION_TYPE":"U","NORAD_CAT_ID":35686,"ELEMENT_SET_NO":999,"REV_AT_EPOCH":90040,"BSTAR":0.00025702946,"MEAN_MOTION_DOT":2.923e-5,"MEAN_MOTION_DDOT":0},{"OBJECT_NAME":"S-NET D","OBJECT_ID":"2018-014G","EPOCH":"2026-03-02T16:13:25.436640","MEAN_MOTION":15.15513803,"ECCENTRICITY":0.0009548,"INCLINATION":97.545,"RA_OF_ASC_NODE":327.1718,"ARG_OF_PERICENTER":36.8925,"MEAN_ANOMALY":323.2962,"EPHEMERIS_TYPE":0,"CLASSIFICATION_TYPE":"U","NORAD_CAT_ID":43186,"ELEMENT_SET_NO":999,"REV_AT_EPOCH":44262,"BSTAR":0.00041163,"MEAN_MOTION_DOT":7.742e-5,"MEAN_MOTION_DDOT":0},{"OBJECT_NAME":"S-NET B","OBJECT_ID":"2018-014H","EPOCH":"2026-03-02T16:27:00.170496","MEAN_MOTION":15.15485743,"ECCENTRICITY":0.0010052,"INCLINATION":97.5456,"RA_OF_ASC_NODE":327.1643,"ARG_OF_PERICENTER":32.1416,"MEAN_ANOMALY":328.0427,"EPHEMERIS_TYPE":0,"CLASSIFICATION_TYPE":"U","NORAD_CAT_ID":43187,"ELEMENT_SET_NO":999,"REV_AT_EPOCH":44262,"BSTAR":0.00042027,"MEAN_MOTION_DOT":7.9e-5,"MEAN_MOTION_DDOT":0},{"OBJECT_NAME":"S-NET A","OBJECT_ID":"2018-014J","EPOCH":"2026-03-02T17:47:36.310272","MEAN_MOTION":15.15521951,"ECCENTRICITY":0.0009971,"INCLINATION":97.5465,"RA_OF_ASC_NODE":327.4095,"ARG_OF_PERICENTER":33.0573,"MEAN_ANOMALY":327.1281,"EPHEMERIS_TYPE":0,"CLASSIFICATION_TYPE":"U","NORAD_CAT_ID":43188,"ELEMENT_SET_NO":999,"REV_AT_EPOCH":44263,"BSTAR":0.00041611,"MEAN_MOTION_DOT":7.829e-5,"MEAN_MOTION_DDOT":0},{"OBJECT_NAME":"S-NET C","OBJECT_ID":"2018-014K","EPOCH":"2026-03-02T16:31:46.320384","MEAN_MOTION":15.15477676,"ECCENTRICITY":0.0011184,"INCLINATION":97.548,"RA_OF_ASC_NODE":327.4152,"ARG_OF_PERICENTER":24.9418,"MEAN_ANOMALY":335.2353,"EPHEMERIS_TYPE":0,"CLASSIFICATION_TYPE":"U","NORAD_CAT_ID":43189,"ELEMENT_SET_NO":999,"REV_AT_EPOCH":44117,"BSTAR":0.00040984,"MEAN_MOTION_DOT":7.703e-5,"MEAN_MOTION_DDOT":0},{"OBJECT_NAME":"SALSAT","OBJECT_ID":"2020-068K","EPOCH":"2026-03-02T12:51:05.084928","MEAN_MOTION":15.28007427,"ECCENTRICITY":0.0008864,"INCLINATION":97.8844,"RA_OF_ASC_NODE":58.2509,"ARG_OF_PERICENTER":326.6723,"MEAN_ANOMALY":33.3956,"EPHEMERIS_TYPE":0,"CLASSIFICATION_TYPE":"U","NORAD_CAT_ID":46495,"ELEMENT_SET_NO":999,"REV_AT_EPOCH":29906,"BSTAR":0.00041124,"MEAN_MOTION_DOT":0.00011172,"MEAN_MOTION_DDOT":0}]
